NORAD_CAT_ID,OBJECT_NAME,OBJECT_TYPE,EPOCH,MEAN_MOTION,ECCENTRICITY,INCLINATION,RA_OF_ASC_NODE,ARG_OF_PERICENTER,MEAN_ANOMALY,BSTAR,MEAN_MOTION_DOT,MEAN_MOTION_DDOT,TLE_LINE0,TLE_LINE1,TLE_LINE2,SEMIMAJOR_AXIS,PERIOD,APOGEE,PERIGEE,DECAYED
53828.0,STARLINK-4760,PAYLOAD,2024-06-16 15:02:22,15.08845148,0.0001263,53.2157,256.9811,88.3,271.8137,8.7509e-05,1.105e-05,0.0,0 STARLINK-4760,1 53828U 22114L   24168.62665245  .00001105  00000-0  87509-4 0  9993,2 53828  53.2157 256.9811 0001263  88.3000 271.8137 15.08845148 97564,6917.865,95.437,540.603,538.856,0.0
53828.0,STARLINK-4760,PAYLOAD,2024-06-17 11:42:24,15.08834967,0.0001185,53.215,253.1149,93.4238,266.689,0.00099743,0.0001562,0.0,0 STARLINK-4760,1 53828U 22114L   24169.48777959  .00015620  00000-0  99743-3 0  9993,2 53828  53.2150 253.1149 0001185  93.4238 266.6890 15.08834967 97692,6917.896,95.438,540.581,538.941,0.0
53828.0,STARLINK-4760,PAYLOAD,2024-06-18 11:33:11,15.08850441,0.0001258,53.2151,248.6537,91.7675,268.3461,0.00071218,0.00011068,0.0,0 STARLINK-4760,1 53828U 22114L   24170.48137880  .00011068  00000-0  71218-3 0  9997,2 53828  53.2151 248.6537 0001258  91.7675 268.3461 15.08850441 97306,6917.848,95.437,540.584,538.843,0.0
53828.0,STARLINK-4760,PAYLOAD,2024-06-19 11:23:58,15.08838677,0.0001068,53.2148,244.1937,69.3387,290.7719,0.00026281,3.897e-05,0.0,0 STARLINK-4760,1 53828U 22114L   24171.47498354  .00003897  00000-0  26281-3 0  9994,2 53828  53.2148 244.1937 0001068  69.3387 290.7719 15.08838677 97455,6917.884,95.438,540.488,539.011,0.0
53828.0,STARLINK-4760,PAYLOAD,2024-06-19 14:34:44,15.08830947,0.0001125,53.2149,243.5975,83.6878,276.4242,0.00013637,1.883e-05,0.0,0 STARLINK-4760,1 53828U 22114L   24171.60746404  .00001883  00000-0  13637-3 0  9995,2 53828  53.2149 243.5975 0001125  83.6878 276.4242 15.08830947 98016,6917.908,95.438,540.551,538.995,0.0
53828.0,STARLINK-4760,PAYLOAD,2024-06-20 14:25:31,15.08845876,0.000128,53.2146,239.1383,87.9632,272.1507,0.00017884,2.56e-05,0.0,0 STARLINK-4760,1 53828U 22114L   24172.60106241  .00002560  00000-0  17884-3 0  9996,2 53828  53.2146 239.1383 0001280  87.9632 272.1507 15.08845876 98164,6917.862,95.437,540.613,538.842,0.0
53828.0,STARLINK-4760,PAYLOAD,2024-06-21 04:44:00,15.08842149,0.0001302,53.2146,236.4614,89.0281,271.086,0.0002951,4.412e-05,0.0,0 STARLINK-4760,1 53828U 22114L   24173.19722470  .00004412  00000-0  29510-3 0  9996,2 53828  53.2146 236.4614 0001302  89.0281 271.0860 15.08842149 97719,6917.874,95.437,540.64,538.838,0.0
53828.0,STARLINK-4760,PAYLOAD,2024-06-21 11:05:32,15.08840976,0.0001269,53.215,235.2718,86.366,273.7477,0.00017715,2.533e-05,0.0,0 STARLINK-4760,1 53828U 22114L   24173.46218545  .00002533  00000-0  17715-3 0  9995,2 53828  53.2150 235.2718 0001269  86.3660 273.7477 15.08840976 98292,6917.877,95.437,540.62,538.865,0.0
53828.0,STARLINK-4760,PAYLOAD,2024-06-22 10:56:19,15.08840032,0.000129,53.2149,230.8116,86.5049,273.609,-7.1103e-06,-4.01e-06,0.0,0 STARLINK-4760,1 53828U 22114L   24174.45578468 -.00000401  00000-0 -71103-5 0  9995,2 53828  53.2149 230.8116 0001290  86.5049 273.6090 15.08840032 97900,6917.88,95.438,540.638,538.853,0.0
53828.0,STARLINK-4760,PAYLOAD,2024-06-23 09:11:43,15.08840196,0.0001275,53.2159,226.6489,99.5444,260.5693,0.00010185,1.333e-05,0.0,0 STARLINK-4760,1 53828U 22114L   24175.38314511  .00001333  00000-0  10185-3 0  9999,2 53828  53.2159 226.6489 0001275  99.5444 260.5693 15.08840196 98583,6917.88,95.438,540.627,538.863,0.0
53828.0,STARLINK-4760,PAYLOAD,2024-06-24 02:40:58,15.08841732,0.0001322,53.2159,223.3773,97.16,262.9543,0.00012534,1.708e-05,0.0,0 STARLINK-4760,1 53828U 22114L   24176.11178308  .00001708  00000-0  12534-3 0  9999,2 53828  53.2159 223.3773 0001322  97.1600 262.9543 15.08841732 98154,6917.875,95.437,540.655,538.826,0.0
53828.0,STARLINK-4760,PAYLOAD,2024-06-24 10:37:53,15.08842483,0.0001301,53.2158,221.8903,91.9838,268.1303,0.00012257,1.663e-05,0.0,0 STARLINK-4760,1 53828U 22114L   24176.44298306  .00001663  00000-0  12257-3 0  9998,2 53828  53.2158 221.8903 0001301  91.9838 268.1303 15.08842483 98744,6917.873,95.437,540.638,538.838,0.0
53828.0,STARLINK-4760,PAYLOAD,2024-06-25 10:28:40,15.08840996,0.0001388,53.2161,217.4303,82.7177,277.3973,4.6764e-05,4.56e-06,0.0,0 STARLINK-4760,1 53828U 22114L   24177.43658544  .00000456  00000-0  46764-4 0  9992,2 53828  53.2161 217.4303 0001388  82.7177 277.3973 15.08840996 98351,6917.877,95.437,540.703,538.782,0.0
53828.0,STARLINK-4760,PAYLOAD,2024-06-26 08:44:04,15.0884397,0.0001457,53.2159,213.2677,78.6252,281.4904,8.2985e-05,1.033e-05,0.0,0 STARLINK-4760,1 53828U 22114L   24178.36394210  .00001033  00000-0  82985-4 0  9999,2 53828  53.2159 213.2677 0001457  78.6252 281.4904 15.08843970 99032,6917.868,95.437,540.741,538.725,0.0
53828.0,STARLINK-4760,PAYLOAD,2024-06-27 05:24:05,15.08841455,0.0001352,53.2149,209.4058,86.8502,273.2644,9.2571e-05,1.186e-05,0.0,0 STARLINK-4760,1 53828U 22114L   24179.22506328  .00001186  00000-0  92571-4 0  9991,2 53828  53.2149 209.4058 0001352  86.8502 273.2644 15.08841455 98624,6917.876,95.437,540.676,538.806,0.0
53828.0,STARLINK-4760,PAYLOAD,2024-06-27 08:34:51,15.08840287,0.0001291,53.2148,208.806,91.2913,268.8227,7.3331e-05,8.79e-06,0.0,0 STARLINK-4760,1 53828U 22114L   24179.35754339  .00000879  00000-0  73331-4 0  9993,2 53828  53.2148 208.8060 0001291  91.2913 268.8227 15.08840287 99188,6917.88,95.438,540.638,538.851,0.0
53828.0,STARLINK-4760,PAYLOAD,2024-06-28 05:14:52,15.08837651,0.0001278,53.2142,204.9399,91.7494,268.3645,3.258e-05,2.31e-06,0.0,0 STARLINK-4760,1 53828U 22114L   24180.21866766  .00000231  00000-0  32580-4 0  9991,2 53828  53.2142 204.9399 0001278  91.7494 268.3645 15.08837651 98772,6917.888,95.438,540.637,538.868,0.0
53828.0,STARLINK-4760,PAYLOAD,2024-06-28 08:25:39,15.08837155,0.0001261,53.2144,204.345,92.0891,268.0246,2.2334e-05,6.8e-07,0.0,0 STARLINK-4760,1 53828U 22114L   24180.35114788  .00000068  00000-0  22334-4 0  9990,2 53828  53.2144 204.3450 0001261  92.0891 268.0246 15.08837155 99339,6917.889,95.438,540.626,538.882,0.0
53828.0,STARLINK-4760,PAYLOAD,2024-06-29 11:27:12,15.08836271,0.0001246,53.2148,199.2909,92.0062,268.1073,6.4786e-05,7.43e-06,0.0,0 STARLINK-4760,1 53828U 22114L   24181.47723063  .00000743  00000-0  64786-4 0  9993,2 53828  53.2148 199.2909 0001246  92.0062 268.1073 15.08836271 98962,6917.892,95.438,540.619,538.895,0.0
53828.0,STARLINK-4760,PAYLOAD,2024-06-29 17:48:45,15.08838204,0.0001211,53.2146,198.1021,92.0552,268.0579,8.9172e-05,1.132e-05,0.0,0 STARLINK-4760,1 53828U 22114L   24181.74218936  .00001132  00000-0  89172-4 0  9990,2 53828  53.2146 198.1021 0001211  92.0552 268.0579 15.08838204 99542,6917.886,95.438,540.589,538.913,0.0
53828.0,STARLINK-4760,PAYLOAD,2024-06-30 08:07:13,15.08835025,0.0001285,53.2157,195.4257,92.4686,267.6453,7.1649e-05,8.52e-06,0.0,0 STARLINK-4760,1 53828U 22114L   24182.33835381  .00000852  00000-0  71649-4 0  9993,2 53828  53.2157 195.4257 0001285  92.4686 267.6453 15.08835025 99632,6917.896,95.438,540.65,538.872,0.0
53828.0,STARLINK-4760,PAYLOAD,2024-06-30 17:39:32,15.08838878,0.0001309,53.2159,193.6414,92.359,267.7552,9.2393e-05,1.183e-05,0.0,0 STARLINK-4760,1 53828U 22114L   24182.73579166  .00001183  00000-0  92393-4 0  9990,2 53828  53.2159 193.6414 0001309  92.3590 267.7552 15.08838878 99156,6917.884,95.438,540.654,538.843,0.0
53828.0,STARLINK-4760,PAYLOAD,2024-07-01 09:33:23,15.08841591,0.000132,53.2159,190.6677,98.4251,261.689,9.6988e-05,1.256e-05,0.0,0 STARLINK-4760,1 53828U 22114L   24183.39819054  .00001256  00000-0  96988-4 0  9991,2 53828  53.2159 190.6677 0001320  98.4251 261.6890 15.08841591 99792,6917.876,95.437,540.654,538.827,0.0
53828.0,STARLINK-4760,PAYLOAD,2024-07-01 17:30:19,15.08845095,0.0001319,53.2161,189.1808,94.4269,265.6874,0.00010781,1.429e-05,0.0,0 STARLINK-4760,1 53828U 22114L   24183.72938756  .00001429  00000-0  10781-3 0  9997,2 53828  53.2161 189.1808 0001319  94.4269 265.6874 15.08845095 99842,6917.865,95.437,540.642,538.817,0.0
53828.0,STARLINK-4760,PAYLOAD,2024-07-02 04:38:01,15.08837533,0.0001304,53.2158,187.0987,91.5943,268.5199,7.064e-05,8.36e-06,0.0,0 STARLINK-4760,1 53828U 22114L   24184.19307354  .00000836  00000-0  70640-4 0  9995,2 53828  53.2158 187.0987 0001304  91.5943 268.5199 15.08837533 99372,6917.888,95.438,540.655,538.851,0.0
53828.0,STARLINK-4760,PAYLOAD,2024-07-02 09:24:10,15.08839315,0.0001282,53.2154,186.2062,90.3811,269.7328,6.8161e-05,7.97e-06,0.0,0 STARLINK-4760,1 53828U 22114L   24184.39179245  .00000797  00000-0  68161-4 0  9994,2 53828  53.2154 186.2062 0001282  90.3811 269.7328 15.08839315 99949,6917.882,95.438,540.634,538.861,0.0
53828.0,STARLINK-4760,PAYLOAD,2024-07-02 17:21:06,15.08844343,0.0001293,53.2153,184.7192,86.9965,273.1175,7.3795e-05,8.87e-06,0.0,0 STARLINK-4760,1 53828U 22114L   24184.72298832  .00000887  00000-0  73795-4 0  9994,2 53828  53.2153 184.7192 0001293  86.9965 273.1175 15.08844343 99999,6917.867,95.437,540.627,538.838,0.0
53828.0,STARLINK-4760,PAYLOAD,2024-07-03 09:14:57,15.08839835,0.0001326,53.2157,181.7448,89.3829,270.7315,1.1354e-05,-1.07e-06,0.0,0 STARLINK-4760,1 53828U 22114L   24185.38539227 -.00000107  00000-0  11354-4 0  9992,2 53828  53.2157 181.7448 0001326  89.3829 270.7315 15.08839835 99558,6917.881,95.438,540.663,538.829,0.0
53828.0,STARLINK-4760,PAYLOAD,2024-07-03 17:11:53,15.08842937,0.0001329,53.2158,180.2588,87.8792,272.2352,1.8761e-05,1.1e-07,0.0,0 STARLINK-4760,1 53828U 22114L   24185.71658960  .00000011  00000-0  18761-4 0  9997,2 53828  53.2158 180.2588 0001329  87.8792 272.2352 15.08842937100146,6917.871,95.437,540.656,538.817,0.0
53828.0,STARLINK-4760,PAYLOAD,2024-07-04 05:54:58,15.08840928,0.0001283,53.2158,177.8796,90.7691,269.3448,3.1981e-05,2.21e-06,0.0,0 STARLINK-4760,1 53828U 22114L   24186.24650974  .00000221  00000-0  31981-4 0  9995,2 53828  53.2158 177.8796 0001283  90.7691 269.3448 15.08840928100229,6917.878,95.437,540.63,538.855,0.0
